0 IRIDIUM 33 DEB
1 34651U 97051KC  13281.68842000  .00002470  00000-0  15765-2 0  1715
2 34651 086.2992 161.9200 0209202 317.6152 094.1419 13.93091343235123
0 IRIDIUM 33 DEB
1 34651U 97051KC  13283.14536347  .00002781  00000-0  17764-2 0  1729
2 34651 086.2994 161.3351 0208996 313.1604 200.9406 13.93103455235321
0 IRIDIUM 33 DEB
1 34651U 97051KC  13285.43777900  .00002286  00000-0  14589-2 0  1738
2 34651 086.2998 160.4146 0208670 306.1558 177.8515 13.93113642235643
0 IRIDIUM 33 DEB
1 34651U 97051KC  13286.64606324  .00002443  00000-0  15602-2 0  1746
2 34651 086.2992 159.9299 0208561 302.4606 117.6742 13.93118833235811
0 IRIDIUM 33 DEB
1 34651U 97051KC  13288.10187912  .00003656  00000-0  23394-2 0  1751
2 34651 086.2987 159.3457 0208514 297.9706 218.9898 13.93127578236018
0 IRIDIUM 33 DEB
1 34651U 97051KC  13289.10757848  .00003337  00000-0  21342-2 0  1761
2 34651 086.2985 158.9418 0208476 294.8721 222.8751 13.93132796236153
0 IRIDIUM 33 DEB
1 34651U 97051KC  13290.39362331  .00003107  00000-0  19866-2 0  1777
2 34651 086.2981 158.4256 0208341 290.9232 192.7900 13.93139833236339
0 IRIDIUM 33 DEB
1 34651U 97051KC  13291.39952706  .00002905  00000-0  18574-2 0  1780
2 34651 086.2979 158.0217 0208227 287.8375 197.7313 13.93144821236476
0 IRIDIUM 33 DEB
1 34651U 97051KC  13292.40433080  .00002935  00000-0  18766-2 0  1799
2 34651 086.2977 157.6184 0208158 284.7477 197.1825 13.93149472236619
0 IRIDIUM 33 DEB
1 34651U 97051KC  13293.40958572  .00003055  00000-0  19537-2 0  1801
2 34651 086.2976 157.2145 0208036 281.6695 198.9006 13.93154078236757
0 IRIDIUM 33 DEB
1 34651U 97051KC  13294.61708439  .00003146  00000-0  20123-2 0  1815
2 34651 086.2976 156.7296 0208035 277.9561 134.9815 13.93160584236923
0 IRIDIUM 33 DEB
1 34651U 97051KC  13295.62258196  .00003031  00000-0  19381-2 0  1825
2 34651 086.2978 156.3255 0208022 274.8652 137.9668 13.93164991237060
